0 COSMOS 1700
1 16199U 85102A   13280.71843290 -.00000228  00000-0  10000-3 0  2361
2 16199 014.6486 001.7741 0009257 111.1022 249.0063 01.00309021105194
0 COSMOS 1700
1 16199U 85102A   13289.69039359 -.00000251  00000-0  10000-3 0  2388
2 16199 014.6517 001.6817 0009380 111.3207 248.7370 01.00306226105287
0 COSMOS 1700
1 16199U 85102A   13293.67808386 -.00000250  00000-0  10000-3 0  2407
2 16199 014.6526 001.6390 0009161 111.9454 248.1541 01.00305983105328
